{"type": "FeatureCollection", "features": [{"type": "Feature", "properties": {"norad_id": 28890, "name": "BEIJING 1", "group": "dmc", "lat": 76.44670995570236, "lon": -23.41498013574167, "alt_km": 665.1347972289987, "timestamp": "2025-12-17T23:38:06.529433+00:00", "meta": {"OBJECT_NAME": "BEIJING 1", "OBJECT_ID": "2005-043A", "EPOCH": "2025-12-17T14:58:17.782752", "MEAN_MOTION": 14.6337137, "ECCENTRICITY": 0.00155265, "INCLINATION": 98.2646, "RA_OF_ASC_NODE": 119.1416, "ARG_OF_PERICENTER": 126.8267, "MEAN_ANOMALY": 233.4362, "EPHEMERIS_TYPE": 0, "CLASSIFICATION_TYPE": "U", "NORAD_CAT_ID": 28890, "ELEMENT_SET_NO": 999, "REV_AT_EPOCH": 7409, "BSTAR": 8.6353571e-05, "MEAN_MOTION_DOT": 3.98e-06, "MEAN_MOTION_DDOT": 0}, "tle": {"line1": "1 28890U 05043A   25351.62381693  .00000398  00000+0  86354-4 0  9992", "line2": "2 28890  98.2646 119.1416 0015526 126.8267 233.4362 14.63371370 74096"}}, "geometry": {"type": "Point", "coordinates": [-23.41498013574167, 76.44670995570236]}}, {"type": "Feature", "properties": {"norad_id": 33320, "name": "HUANJING 1A (HJ-1A)", "group": "dmc", "lat": 33.674084698509674, "lon": 165.20473317558532, "alt_km": 625.0563815091282, "timestamp": "2025-12-17T23:38:06.529463+00:00", "meta": {"OBJECT_NAME": "HUANJING 1A (HJ-1A)", "OBJECT_ID": "2008-041A", "EPOCH": "2025-12-17T14:53:10.877856", "MEAN_MOTION": 14.83410961, "ECCENTRICITY": 0.00198863, "INCLINATION": 97.6536, "RA_OF_ASC_NODE": 339.7152, "ARG_OF_PERICENTER": 19.0249, "MEAN_ANOMALY": 341.1704, "EPHEMERIS_TYPE": 0, "CLASSIFICATION_TYPE": "U", "NORAD_CAT_ID": 33320, "ELEMENT_SET_NO": 999, "REV_AT_EPOCH": 93148, "BSTAR": 0.00016019991, "MEAN_MOTION_DOT": 1.268e-05, "MEAN_MOTION_DDOT": 0}, "tle": {"line1": "1 33320U 08041A   25351.62026479  .00001268  00000+0  16020-3 0  9994", "line2": "2 33320  97.6536 339.7152 0019886  19.0249 341.1704 14.83410961931488"}}, "geometry": {"type": "Point", "coordinates": [165.20473317558532, 33.674084698509674]}}, {"type": "Feature", "properties": {"norad_id": 33321, "name": "HUANJING 1B (HJ-1B)", "group": "dmc", "lat": -4.518417137685456, "lon": -15.64431959171601, "alt_km": 611.9775229017323, "timestamp": "2025-12-17T23:38:06.529478+00:00", "meta": {"OBJECT_NAME": "HUANJING 1B (HJ-1B)", "OBJECT_ID": "2008-041B", "EPOCH": "2025-12-17T15:33:28.805184", "MEAN_MOTION": 14.82832485, "ECCENTRICITY": 0.00381449, "INCLINATION": 97.6397, "RA_OF_ASC_NODE": 343.4263, "ARG_OF_PERICENTER": 60.1026, "MEAN_ANOMALY": 300.3969, "EPHEMERIS_TYPE": 0, "CLASSIFICATION_TYPE": "U", "NORAD_CAT_ID": 33321, "ELEMENT_SET_NO": 999, "REV_AT_EPOCH": 93150, "BSTAR": 6.6546407e-05, "MEAN_MOTION_DOT": 4.94e-06, "MEAN_MOTION_DDOT": 0}, "tle": {"line1": "1 33321U 08041B   25351.64825006  .00000494  00000+0  66546-4 0  9999", "line2": "2 33321  97.6397 343.4263 0038144  60.1026 300.3969 14.82832485931508"}}, "geometry": {"type": "Point", "coordinates": [-15.64431959171601, -4.518417137685456]}}, {"type": "Feature", "properties": {"norad_id": 33446, "name": "YAOGAN-4", "group": "dmc", "lat": -80.65119471547247, "lon": 44.31199086840476, "alt_km": 621.050735739158, "timestamp": "2025-12-17T23:38:06.529490+00:00", "meta": {"OBJECT_NAME": "YAOGAN-4", "OBJECT_ID": "2008-061A", "EPOCH": "2025-12-17T12:43:27.984864", "MEAN_MOTION": 14.82696581, "ECCENTRICITY": 0.00132888, "INCLINATION": 97.9187, "RA_OF_ASC_NODE": 281.5825, "ARG_OF_PERICENTER": 306.5713, "MEAN_ANOMALY": 53.4277, "EPHEMERIS_TYPE": 0, "CLASSIFICATION_TYPE": "U", "NORAD_CAT_ID": 33446, "ELEMENT_SET_NO": 999, "REV_AT_EPOCH": 91874, "BSTAR": 0.00015271326, "MEAN_MOTION_DOT": 1.18e-05, "MEAN_MOTION_DDOT": 0}, "tle": {"line1": "1 33446U 08061A   25351.53018501  .00001180  00000+0  15271-3 0  9992", "line2": "2 33446  97.9187 281.5825 0013288 306.5713  53.4277 14.82696581918748"}}, "geometry": {"type": "Point", "coordinates": [44.31199086840476, -80.65119471547247]}}, {"type": "Feature", "properties": {"norad_id": 35681, "name": "DEIMOS-1", "group": "dmc", "lat": -67.74351321858052, "lon": -46.99948360580797, "alt_km": 654.400996767994, "timestamp": "2025-12-17T23:38:06.529501+00:00", "meta": {"OBJECT_NAME": "DEIMOS-1", "OBJECT_ID": "2009-041A", "EPOCH": "2025-12-17T14:22:07.864896", "MEAN_MOTION": 14.74959554, "ECCENTRICITY": 0.00026436, "INCLINATION": 97.7141, "RA_OF_ASC_NODE": 151.975, "ARG_OF_PERICENTER": 71.3807, "MEAN_ANOMALY": 288.769, "EPHEMERIS_TYPE": 0, "CLASSIFICATION_TYPE": "U", "NORAD_CAT_ID": 35681, "ELEMENT_SET_NO": 999, "REV_AT_EPOCH": 88011, "BSTAR": 6.1337004e-05, "MEAN_MOTION_DOT": 3.65e-06, "MEAN_MOTION_DDOT": 0}, "tle": {"line1": "1 35681U 09041A   25351.59870214  .00000365  00000+0  61337-4 0  9996", "line2": "2 35681  97.7141 151.9750 0002643  71.3807 288.7690 14.74959554880114"}}, "geometry": {"type": "Point", "coordinates": [-46.99948360580797, -67.74351321858052]}}, {"type": "Feature", "properties": {"norad_id": 35683, "name": "UK-DMC 2", "group": "dmc", "lat": -79.63355321028322, "lon": 175.73977732156195, "alt_km": 651.5262594879678, "timestamp": "2025-12-17T23:38:06.529512+00:00", "meta": {"OBJECT_NAME": "UK-DMC 2", "OBJECT_ID": "2009-041C", "EPOCH": "2025-12-17T14:14:50.775936", "MEAN_MOTION": 14.75631791, "ECCENTRICITY": 0.00014738, "INCLINATION": 97.8554, "RA_OF_ASC_NODE": 126.3587, "ARG_OF_PERICENTER": 93.8282, "MEAN_ANOMALY": 266.3096, "EPHEMERIS_TYPE": 0, "CLASSIFICATION_TYPE": "U", "NORAD_CAT_ID": 35683, "ELEMENT_SET_NO": 999, "REV_AT_EPOCH": 87978, "BSTAR": 9.2904635e-05, "MEAN_MOTION_DOT": 5.85e-06, "MEAN_MOTION_DDOT": 0}, "tle": {"line1": "1 35683U 09041C   25351.59364324  .00000585  00000+0  92905-4 0  9997", "line2": "2 35683  97.8554 126.3587 0001473  93.8282 266.3096 14.75631791879789"}}, "geometry": {"type": "Point", "coordinates": [175.73977732156195, -79.63355321028322]}}, {"type": "Feature", "properties": {"norad_id": 40715, "name": "DMC3-FM1", "group": "dmc", "lat": 28.836594999288558, "lon": 43.24086072554605, "alt_km": 613.5169100703861, "timestamp": "2025-12-17T23:38:06.529523+00:00", "meta": {"OBJECT_NAME": "DMC3-FM1", "OBJECT_ID": "2015-032A", "EPOCH": "2025-12-17T14:52:29.864640", "MEAN_MOTION": 14.85450097, "ECCENTRICITY": 0.00043348, "INCLINATION": 97.6694, "RA_OF_ASC_NODE": 218.6344, "ARG_OF_PERICENTER": 302.9502, "MEAN_ANOMALY": 57.1297, "EPHEMERIS_TYPE": 0, "CLASSIFICATION_TYPE": "U", "NORAD_CAT_ID": 40715, "ELEMENT_SET_NO": 999, "REV_AT_EPOCH": 56295, "BSTAR": 9.1508034e-05, "MEAN_MOTION_DOT": 7.37e-06, "MEAN_MOTION_DDOT": 0}, "tle": {"line1": "1 40715U 15032A   25351.61979010  .00000737  00000+0  91508-4 0  9990", "line2": "2 40715  97.6694 218.6344 0004334 302.9502  57.1297 14.85450097562954"}}, "geometry": {"type": "Point", "coordinates": [43.24086072554605, 28.836594999288558]}}, {"type": "Feature", "properties": {"norad_id": 40716, "name": "DMC3-FM2", "group": "dmc", "lat": 30.247717091336135, "lon": -144.07675833030584, "alt_km": 610.2686018318445, "timestamp": "2025-12-17T23:38:06.529534+00:00", "meta": {"OBJECT_NAME": "DMC3-FM2", "OBJECT_ID": "2015-032B", "EPOCH": "2025-12-17T15:24:53.144064", "MEAN_MOTION": 14.85448448, "ECCENTRICITY": 0.00049878, "INCLINATION": 97.6751, "RA_OF_ASC_NODE": 220.1033, "ARG_OF_PERICENTER": 307.981, "MEAN_ANOMALY": 52.0955, "EPHEMERIS_TYPE": 0, "CLASSIFICATION_TYPE": "U", "NORAD_CAT_ID": 40716, "ELEMENT_SET_NO": 999, "REV_AT_EPOCH": 56295, "BSTAR": 2.5890157e-05, "MEAN_MOTION_DOT": 1.72e-06, "MEAN_MOTION_DDOT": 0}, "tle": {"line1": "1 40716U 15032B   25351.64228176  .00000172  00000+0  25890-4 0  9998", "line2": "2 40716  97.6751 220.1033 0004987 307.9810  52.0955 14.85448448562955"}}, "geometry": {"type": "Point", "coordinates": [-144.07675833030584, 30.247717091336135]}}, {"type": "Feature", "properties": {"norad_id": 40717, "name": "DMC3-FM3", "group": "dmc", "lat": -80.9652816440461, "lon": -79.85945503752828, "alt_km": 617.0510816609167, "timestamp": "2025-12-17T23:38:06.529544+00:00", "meta": {"OBJECT_NAME": "DMC3-FM3", "OBJECT_ID": "2015-032C", "EPOCH": "2025-12-17T15:56:04.988832", "MEAN_MOTION": 14.85436932, "ECCENTRICITY": 0.000433, "INCLINATION": 97.6804, "RA_OF_ASC_NODE": 221.7604, "ARG_OF_PERICENTER": 309.424, "MEAN_ANOMALY": 50.6592, "EPHEMERIS_TYPE": 0, "CLASSIFICATION_TYPE": "U", "NORAD_CAT_ID": 40717, "ELEMENT_SET_NO": 999, "REV_AT_EPOCH": 56296, "BSTAR": 7.489563e-05, "MEAN_MOTION_DOT": 5.94e-06, "MEAN_MOTION_DDOT": 0}, "tle": {"line1": "1 40717U 15032C   25351.66394663  .00000594  00000+0  74896-4 0  9994", "line2": "2 40717  97.6804 221.7604 0004330 309.4240  50.6592 14.85436932562969"}}, "geometry": {"type": "Point", "coordinates": [-79.85945503752828, -80.9652816440461]}}]}